start=new Date('2022-04-26T00:00:00.000Z').valueOf();
sats=[{"GP_ID":"202026352","TLE_LINE2":"2 47669  53.0551 203.2614 0002165  42.3477 267.0937 15.07127386  3605","RA_OF_ASC_NODE":"203.2614","PERIAPSIS":"543.486","RCS_SIZE":"LARGE","OBJECT_NAME":"STARLINK-2060","MEAN_ANOMALY":"267.0937","TLE_LINE1":"1 47669U 21012BB  22115.91667824 -.00014314  00000-0 -92541-3 0  9991","DECAY_DATE":null,"CENTER_NAME":"EARTH","TIME_SYSTEM":"UTC","MEAN_MOTION_DOT":"-0.00014314","APOAPSIS":"546.484","SITE":"AFETR","FILE":"3416090","CLASSIFICATION_TYPE":"U","MEAN_MOTION":"15.07127386","EPHEMERIS_TYPE":"0","OBJECT_TYPE":"PAYLOAD","MEAN_ELEMENT_THEORY":"SGP4","COUNTRY_CODE":"US","MEAN_MOTION_DDOT":"0.0000000000000","EPOCH":"2022-04-25T22:00:00.999936","LAUNCH_DATE":"2021-02-16","BSTAR":"-0.00092541000000","ELEMENT_SET_NO":"999","ECCENTRICITY":"0.00021650","PERIOD":"95.546","REF_FRAME":"TEME","INCLINATION":"53.0551","ARG_OF_PERICENTER":"42.3477","OBJECT_ID":"2021-012BB","NORAD_CAT_ID":"47669","REV_AT_EPOCH":"360","SEMIMAJOR_AXIS":"6923.120"},{"REF_FRAME":"TEME","ARG_OF_PERICENTER":"34.4857","INCLINATION":"53.0531","PERIOD":"95.592","SEMIMAJOR_AXIS":"6925.365","REV_AT_EPOCH":"6716","NORAD_CAT_ID":"47670","OBJECT_ID":"2021-012BC","MEAN_MOTION_DDOT":"0.0000000000000","COUNTRY_CODE":"US","MEAN_ELEMENT_THEORY":"SGP4","ECCENTRICITY":"0.00022820","ELEMENT_SET_NO":"999","BSTAR":"0.00003269700000","LAUNCH_DATE":"2021-02-16","EPOCH":"2022-04-25T21:03:52.323552","MEAN_MOTION":"15.06394545","FILE":"3416090","SITE":"AFETR","CLASSIFICATION_TYPE":"U","APOAPSIS":"548.811","OBJECT_TYPE":"PAYLOAD","EPHEMERIS_TYPE":"0","RCS_SIZE":"LARGE","RA_OF_ASC_NODE":"278.4570","PERIAPSIS":"545.650","GP_ID":"202027099","TLE_LINE2":"2 47670  53.0531 278.4570 0002282  34.4857 325.6280 15.06394545 67169","CENTER_NAME":"EARTH","TIME_SYSTEM":"UTC","MEAN_MOTION_DOT":"0.00000205","DECAY_DATE":null,"TLE_LINE1":"1 47670U 21012BC  22115.87768893  .00000205  00000-0  32697-4 0  9995","MEAN_ANOMALY":"325.6280","OBJECT_NAME":"STARLINK-2062"},{"TLE_LINE1":"1 47671U 21012BD  22115.85926612  .00000825  00000-0  74298-4 0  9990","OBJECT_NAME":"STARLINK-2064","MEAN_ANOMALY":"291.4600","CENTER_NAME":"EARTH","MEAN_MOTION_DOT":"0.00000825","TIME_SYSTEM":"UTC","DECAY_DATE":null,"RA_OF_ASC_NODE":"278.5484","PERIAPSIS":"546.199","GP_ID":"202027349","TLE_LINE2":"2 47671  53.0528 278.5484 0001499  68.6548 291.4600 15.06392465 67172","RCS_SIZE":"LARGE","OBJECT_TYPE":"PAYLOAD","EPHEMERIS_TYPE":"0","APOAPSIS":"548.275","MEAN_MOTION":"15.06392465","SITE":"AFETR","FILE":"3416090","CLASSIFICATION_TYPE":"U","BSTAR":"0.00007429800000","LAUNCH_DATE":"2021-02-16","EPOCH":"2022-04-25T20:37:20.592768","ECCENTRICITY":"0.00014990","ELEMENT_SET_NO":"999","COUNTRY_CODE":"US","MEAN_ELEMENT_THEORY":"SGP4","MEAN_MOTION_DDOT":"0.0000000000000","NORAD_CAT_ID":"47671","OBJECT_ID":"2021-012BD","SEMIMAJOR_AXIS":"6925.372","REV_AT_EPOCH":"6717","PERIOD":"95.593","REF_FRAME":"TEME","INCLINATION":"53.0528","ARG_OF_PERICENTER":"68.6548"},{"TLE_LINE1":"1 47672U 21012BE  22115.83807064  .00000541  00000-0  55196-4 0  9999","MEAN_ANOMALY":"276.8355","OBJECT_NAME":"STARLINK-2065","MEAN_MOTION_DOT":"0.00000541","TIME_SYSTEM":"UTC","CENTER_NAME":"EARTH","DECAY_DATE":null,"PERIAPSIS":"546.141","RA_OF_ASC_NODE":"268.6438","GP_ID":"202026603","TLE_LINE2":"2 47672  53.0564 268.6438 0001585  83.2815 276.8355 15.06391963 67286","RCS_SIZE":"LARGE","OBJECT_TYPE":"PAYLOAD","EPHEMERIS_TYPE":"0","APOAPSIS":"548.336","MEAN_MOTION":"15.06391963","CLASSIFICATION_TYPE":"U","SITE":"AFETR","FILE":"3416090","BSTAR":"0.00005519600000","LAUNCH_DATE":"2021-02-16","EPOCH":"2022-04-25T20:06:49.303296","ECCENTRICITY":"0.00015850","ELEMENT_SET_NO":"999","COUNTRY_CODE":"US","MEAN_ELEMENT_THEORY":"SGP4","MEAN_MOTION_DDOT":"0.0000000000000","NORAD_CAT_ID":"47672","OBJECT_ID":"2021-012BE","SEMIMAJOR_AXIS":"6925.373","REV_AT_EPOCH":"6728","PERIOD":"95.593","ARG_OF_PERICENTER":"83.2815","INCLINATION":"53.0564","REF_FRAME":"TEME"},{"MEAN_ELEMENT_THEORY":"SGP4","COUNTRY_CODE":"US","MEAN_MOTION_DDOT":"0.0000000000000","EPOCH":"2022-04-25T17:58:07.122720","LAUNCH_DATE":"2021-02-16","BSTAR":"-0.00000624700000","ELEMENT_SET_NO":"999","ECCENTRICITY":"0.00015940","PERIOD":"95.593","REF_FRAME":"TEME","ARG_OF_PERICENTER":"61.3030","INCLINATION":"53.0552","OBJECT_ID":"2021-012BF","NORAD_CAT_ID":"47673","REV_AT_EPOCH":"6714","SEMIMAJOR_AXIS":"6925.393","GP_ID":"202026853","TLE_LINE2":"2 47673  53.0552 279.0528 0001594  61.3030 298.8119 15.06385462 67140","RA_OF_ASC_NODE":"279.0528","PERIAPSIS":"546.154","RCS_SIZE":"LARGE","MEAN_ANOMALY":"298.8119","OBJECT_NAME":"STARLINK-2066","TLE_LINE1":"1 47673U 21012BF  22115.74869355 -.00000375  00000-0 -62470-5 0  9992","DECAY_DATE":null,"CENTER_NAME":"EARTH","MEAN_MOTION_DOT":"-0.00000375","TIME_SYSTEM":"UTC","APOAPSIS":"548.362","FILE":"3416090","SITE":"AFETR","CLASSIFICATION_TYPE":"U","MEAN_MOTION":"15.06385462","EPHEMERIS_TYPE":"0","OBJECT_TYPE":"PAYLOAD"},{"RCS_SIZE":"LARGE","PERIAPSIS":"546.126","RA_OF_ASC_NODE":"278.6705","GP_ID":"202027600","TLE_LINE2":"2 47674  53.0556 278.6705 0001582  71.0833 289.0328 15.06397309 67162","MEAN_MOTION_DOT":"0.00000829","TIME_SYSTEM":"UTC","CENTER_NAME":"EARTH","DECAY_DATE":null,"TLE_LINE1":"1 47674U 21012BG  22115.82977537  .00000829  00000-0  74523-4 0  9997","OBJECT_NAME":"STARLINK-2067","MEAN_ANOMALY":"289.0328","MEAN_MOTION":"15.06397309","CLASSIFICATION_TYPE":"U","SITE":"AFETR","FILE":"3416090","APOAPSIS":"548.317","OBJECT_TYPE":"PAYLOAD","EPHEMERIS_TYPE":"0","MEAN_MOTION_DDOT":"0.0000000000000","COUNTRY_CODE":"US","MEAN_ELEMENT_THEORY":"SGP4","ECCENTRICITY":"0.00015820","ELEMENT_SET_NO":"999","LAUNCH_DATE":"2021-02-16","BSTAR":"0.00007452300000","EPOCH":"2022-04-25T19:54:52.591968","INCLINATION":"53.0556","ARG_OF_PERICENTER":"71.0833","REF_FRAME":"TEME","PERIOD":"95.592","SEMIMAJOR_AXIS":"6925.357","REV_AT_EPOCH":"6716","NORAD_CAT_ID":"47674","OBJECT_ID":"2021-012BG"},{"TLE_LINE1":"1 47675U 21012BH  22115.88874992  .00000393  00000-0  45281-4 0  9990","OBJECT_NAME":"STARLINK-2078","MEAN_ANOMALY":"294.7693","CENTER_NAME":"EARTH","MEAN_MOTION_DOT":"0.00000393","TIME_SYSTEM":"UTC","DECAY_DATE":null,"RA_OF_ASC_NODE":"278.4222","PERIAPSIS":"546.111","GP_ID":"202027850","TLE_LINE2":"2 47675  53.0542 278.4222 0001615  65.3464 294.7693 15.06394790 67173","RCS_SIZE":"LARGE","OBJECT_TYPE":"PAYLOAD","EPHEMERIS_TYPE":"0","APOAPSIS":"548.348","MEAN_MOTION":"15.06394790","SITE":"AFETR","FILE":"3416090","CLASSIFICATION_TYPE":"U","LAUNCH_DATE":"2021-02-16","BSTAR":"0.00004528100000","EPOCH":"2022-04-25T21:19:47.993088","ECCENTRICITY":"0.00016150","ELEMENT_SET_NO":"999","COUNTRY_CODE":"US","MEAN_ELEMENT_THEORY":"SGP4","MEAN_MOTION_DDOT":"0.0000000000000","NORAD_CAT_ID":"47675","OBJECT_ID":"2021-012BH","SEMIMAJOR_AXIS":"6925.365","REV_AT_EPOCH":"6717","PERIOD":"95.592","REF_FRAME":"TEME","ARG_OF_PERICENTER":"65.3464","INCLINATION":"53.0542"},{"PERIOD":"95.592","ARG_OF_PERICENTER":"44.2680","INCLINATION":"53.0549","REF_FRAME":"TEME","OBJECT_ID":"2021-012BJ","NORAD_CAT_ID":"47676","REV_AT_EPOCH":"360","SEMIMAJOR_AXIS":"6925.337","MEAN_ELEMENT_THEORY":"SGP4","COUNTRY_CODE":"US","MEAN_MOTION_DDOT":"0.0000000000000","EPOCH":"2022-04-25T22:00:00.999936","LAUNCH_DATE":"2021-02-16","BSTAR":"-0.00169190000000","ELEMENT_SET_NO":"999","ECCENTRICITY":"0.00018320","APOAPSIS":"548.470","CLASSIFICATION_TYPE":"U","FILE":"3416090","SITE":"AFETR","MEAN_MOTION":"15.06403932","EPHEMERIS_TYPE":"0","OBJECT_TYPE":"PAYLOAD","TLE_LINE2":"2 47676  53.0549 168.3047 0001832  44.2680 132.3299 15.06403932  3606","GP_ID":"202026103","PERIAPSIS":"545.933","RA_OF_ASC_NODE":"168.3047","RCS_SIZE":"LARGE","OBJECT_NAME":"STARLINK-2083","MEAN_ANOMALY":"132.3299","TLE_LINE1":"1 47676U 21012BJ  22115.91667824 -.00025396  00000-0 -16919-2 0  9995","DECAY_DATE":null,"TIME_SYSTEM":"UTC","MEAN_MOTION_DOT":"-0.00025396","CENTER_NAME":"EARTH"},{"EPOCH":"2022-04-25T19:25:41.395296","BSTAR":"0.00011855000000","LAUNCH_DATE":"2021-02-16","ELEMENT_SET_NO":"999","ECCENTRICITY":"0.00017220","MEAN_ELEMENT_THEORY":"SGP4","COUNTRY_CODE":"US","MEAN_MOTION_DDOT":"0.0000000000000","OBJECT_ID":"2021-012BK","NORAD_CAT_ID":"47677","REV_AT_EPOCH":"6687","SEMIMAJOR_AXIS":"6925.377","PERIOD":"95.593","REF_FRAME":"TEME","INCLINATION":"53.0533","ARG_OF_PERICENTER":"45.8552","MEAN_ANOMALY":"314.2578","OBJECT_NAME":"STARLINK-2090","TLE_LINE1":"1 47677U 21012BK  22115.80950689  .00001484  00000-0  11855-3 0  9993","DECAY_DATE":null,"CENTER_NAME":"EARTH","MEAN_MOTION_DOT":"0.00001484","TIME_SYSTEM":"UTC","TLE_LINE2":"2 47677  53.0533 298.7875 0001722  45.8552 314.2578 15.06390611 66878","GP_ID":"202026353","RA_OF_ASC_NODE":"298.7875","PERIAPSIS":"546.050","RCS_SIZE":"LARGE","EPHEMERIS_TYPE":"0","OBJECT_TYPE":"PAYLOAD","APOAPSIS":"548.435","FILE":"3416090","SITE":"AFETR","CLASSIFICATION_TYPE":"U","MEAN_MOTION":"15.06390611"},{"RA_OF_ASC_NODE":"298.6596","PERIAPSIS":"546.363","GP_ID":"202027100","TLE_LINE2":"2 47679  53.0540 298.6596 0001197  82.6677 277.4448 15.06407075 66891","RCS_SIZE":"LARGE","TLE_LINE1":"1 47679U 21012BM  22115.83804066  .00002902  00000-0  21359-3 0  9991","OBJECT_NAME":"STARLINK-2095","MEAN_ANOMALY":"277.4448","CENTER_NAME":"EARTH","TIME_SYSTEM":"UTC","MEAN_MOTION_DOT":"0.00002902","DECAY_DATE":null,"APOAPSIS":"548.021","MEAN_MOTION":"15.06407075","SITE":"AFETR","FILE":"3416090","CLASSIFICATION_TYPE":"U","OBJECT_TYPE":"PAYLOAD","EPHEMERIS_TYPE":"0","COUNTRY_CODE":"US","MEAN_ELEMENT_THEORY":"SGP4","MEAN_MOTION_DDOT":"0.0000000000000","BSTAR":"0.00021359000000","LAUNCH_DATE":"2021-02-16","EPOCH":"2022-04-25T20:06:46.713024","ECCENTRICITY":"0.00011970","ELEMENT_SET_NO":"999","PERIOD":"95.592","REF_FRAME":"TEME","INCLINATION":"53.0540","ARG_OF_PERICENTER":"82.6677","NORAD_CAT_ID":"47679","OBJECT_ID":"2021-012BM","SEMIMAJOR_AXIS":"6925.327","REV_AT_EPOCH":"6689"}];
